start=new Date('2022-10-19T00:00:00.000Z').valueOf();
sats=[{"PERIAPSIS":"538.359","TLE_LINE2":"2 51115  53.2167  85.9758 0001995  51.4109 308.7062 15.08842018 42004","COUNTRY_CODE":"US","MEAN_ANOMALY":"308.7062","ECCENTRICITY":"0.00019950","DECAY_DATE":null,"LAUNCH_DATE":"2022-01-19","MEAN_MOTION_DDOT":"0.0000000000000","RA_OF_ASC_NODE":"85.9758","REF_FRAME":"TEME","RCS_SIZE":"LARGE","APOAPSIS":"541.119","ARG_OF_PERICENTER":"51.4109","CLASSIFICATION_TYPE":"U","ELEMENT_SET_NO":"999","FILE":"3621750","OBJECT_ID":"2022-005M","MEAN_MOTION":"15.08842018","INCLINATION":"53.2167","NORAD_CAT_ID":"51115","OBJECT_NAME":"STARLINK-3397","EPOCH":"2022-10-18T20:27:28.602432","EPHEMERIS_TYPE":"0","MEAN_MOTION_DOT":"-0.00000030","CENTER_NAME":"EARTH","PERIOD":"95.437","OBJECT_TYPE":"PAYLOAD","TIME_SYSTEM":"UTC","GP_ID":"215530419","MEAN_ELEMENT_THEORY":"SGP4","REV_AT_EPOCH":"4200","TLE_LINE1":"1 51115U 22005M   22291.85241438 -.00000030  00000-0  16212-4 0  9993","BSTAR":"0.00001621200000","SEMIMAJOR_AXIS":"6917.874","SITE":"AFETR"},{"MEAN_ANOMALY":"320.7105","COUNTRY_CODE":"US","PERIAPSIS":"538.411","TLE_LINE2":"2 51116  53.2180  86.2157 0001923  39.4027 320.7105 15.08841332 41990","LAUNCH_DATE":"2022-01-19","DECAY_DATE":null,"ECCENTRICITY":"0.00019230","APOAPSIS":"541.072","RCS_SIZE":"LARGE","REF_FRAME":"TEME","RA_OF_ASC_NODE":"86.2157","MEAN_MOTION_DDOT":"0.0000000000000","CLASSIFICATION_TYPE":"U","OBJECT_ID":"2022-005N","FILE":"3621750","ELEMENT_SET_NO":"999","MEAN_MOTION":"15.08841332","ARG_OF_PERICENTER":"39.4027","EPOCH":"2022-10-18T19:13:17.684832","EPHEMERIS_TYPE":"0","OBJECT_NAME":"STARLINK-3243","INCLINATION":"53.2180","NORAD_CAT_ID":"51116","OBJECT_TYPE":"PAYLOAD","PERIOD":"95.437","CENTER_NAME":"EARTH","MEAN_MOTION_DOT":"-0.00001046","BSTAR":"-0.00004763700000","REV_AT_EPOCH":"4199","MEAN_ELEMENT_THEORY":"SGP4","TLE_LINE1":"1 51116U 22005N   22291.80089913 -.00001046  00000-0 -47637-4 0  9991","TIME_SYSTEM":"UTC","GP_ID":"215530179","SITE":"AFETR","SEMIMAJOR_AXIS":"6917.876"},{"RA_OF_ASC_NODE":"86.6475","MEAN_MOTION_DDOT":"0.0000000000000","APOAPSIS":"541.168","RCS_SIZE":"LARGE","REF_FRAME":"TEME","ARG_OF_PERICENTER":"44.8284","FILE":"3621750","OBJECT_ID":"2022-005P","ELEMENT_SET_NO":"999","MEAN_MOTION":"15.08826984","CLASSIFICATION_TYPE":"U","COUNTRY_CODE":"US","TLE_LINE2":"2 51117  53.2167  86.6475 0001999  44.8284 315.2869 15.08826984 41982","PERIAPSIS":"538.402","MEAN_ANOMALY":"315.2869","ECCENTRICITY":"0.00019990","LAUNCH_DATE":"2022-01-19","DECAY_DATE":null,"TLE_LINE1":"1 51117U 22005P   22291.70521628  .00001481  00000-0  11118-3 0  9990","MEAN_ELEMENT_THEORY":"SGP4","REV_AT_EPOCH":"4198","GP_ID":"215529427","TIME_SYSTEM":"UTC","BSTAR":"0.00011118000000","SEMIMAJOR_AXIS":"6917.920","SITE":"AFETR","NORAD_CAT_ID":"51117","INCLINATION":"53.2167","EPHEMERIS_TYPE":"0","EPOCH":"2022-10-18T16:55:30.686592","OBJECT_NAME":"STARLINK-3391","MEAN_MOTION_DOT":"0.00001481","CENTER_NAME":"EARTH","PERIOD":"95.438","OBJECT_TYPE":"PAYLOAD"},{"REF_FRAME":"TEME","RCS_SIZE":"LARGE","APOAPSIS":"541.054","MEAN_MOTION_DDOT":"0.0000000000000","RA_OF_ASC_NODE":"86.5596","FILE":"3621750","OBJECT_ID":"2022-005Q","ELEMENT_SET_NO":"999","MEAN_MOTION":"15.08843917","CLASSIFICATION_TYPE":"U","ARG_OF_PERICENTER":"46.6719","MEAN_ANOMALY":"313.4432","TLE_LINE2":"2 51118  53.2165  86.5596 0001909  46.6719 313.4432 15.08843917 41989","PERIAPSIS":"538.413","COUNTRY_CODE":"US","DECAY_DATE":null,"LAUNCH_DATE":"2022-01-19","ECCENTRICITY":"0.00019090","BSTAR":"0.00028717000000","GP_ID":"215529677","TIME_SYSTEM":"UTC","TLE_LINE1":"1 51118U 22005Q   22291.72362396  .00004286  00000-0  28717-3 0  9997","REV_AT_EPOCH":"4198","MEAN_ELEMENT_THEORY":"SGP4","SITE":"AFETR","SEMIMAJOR_AXIS":"6917.868","OBJECT_NAME":"STARLINK-3394","EPHEMERIS_TYPE":"0","EPOCH":"2022-10-18T17:22:01.110144","NORAD_CAT_ID":"51118","INCLINATION":"53.2165","PERIOD":"95.437","OBJECT_TYPE":"PAYLOAD","MEAN_MOTION_DOT":"0.00004286","CENTER_NAME":"EARTH"},{"MEAN_MOTION_DDOT":"0.0000000000000","RA_OF_ASC_NODE":"86.6756","REF_FRAME":"TEME","RCS_SIZE":"LARGE","APOAPSIS":"541.049","ARG_OF_PERICENTER":"47.7135","FILE":"3621750","ELEMENT_SET_NO":"999","MEAN_MOTION":"15.08841563","OBJECT_ID":"2022-005R","CLASSIFICATION_TYPE":"U","TLE_LINE2":"2 51119  53.2183  86.6756 0001892  47.7135 312.4017 15.08841563 41987","PERIAPSIS":"538.432","COUNTRY_CODE":"US","MEAN_ANOMALY":"312.4017","ECCENTRICITY":"0.00018920","DECAY_DATE":null,"LAUNCH_DATE":"2022-01-19","GP_ID":"215529920","TIME_SYSTEM":"UTC","TLE_LINE1":"1 51119U 22005R   22291.70153023  .00000498  00000-0  49398-4 0  9991","MEAN_ELEMENT_THEORY":"SGP4","REV_AT_EPOCH":"4198","BSTAR":"0.00004939800000","SEMIMAJOR_AXIS":"6917.876","SITE":"AFETR","NORAD_CAT_ID":"51119","INCLINATION":"53.2183","OBJECT_NAME":"STARLINK-3390","EPHEMERIS_TYPE":"0","EPOCH":"2022-10-18T16:50:12.211872","CENTER_NAME":"EARTH","MEAN_MOTION_DOT":"0.00000498","PERIOD":"95.437","OBJECT_TYPE":"PAYLOAD"},{"REF_FRAME":"TEME","RCS_SIZE":"LARGE","APOAPSIS":"541.016","MEAN_MOTION_DDOT":"0.0000000000000","RA_OF_ASC_NODE":"86.7085","CLASSIFICATION_TYPE":"U","ELEMENT_SET_NO":"999","FILE":"3621750","OBJECT_ID":"2022-005S","MEAN_MOTION":"15.08842481","ARG_OF_PERICENTER":"40.5398","MEAN_ANOMALY":"319.5731","PERIAPSIS":"538.460","TLE_LINE2":"2 51120  53.2170  86.7085 0001847  40.5398 319.5731 15.08842481 41984","COUNTRY_CODE":"US","DECAY_DATE":null,"LAUNCH_DATE":"2022-01-19","ECCENTRICITY":"0.00018470","BSTAR":"0.00012819000000","TIME_SYSTEM":"UTC","GP_ID":"215530679","REV_AT_EPOCH":"4198","MEAN_ELEMENT_THEORY":"SGP4","TLE_LINE1":"1 51120U 22005S   22291.69417726  .00001753  00000-0  12819-3 0  9996","SITE":"AFETR","SEMIMAJOR_AXIS":"6917.873","OBJECT_NAME":"STARLINK-3398","EPOCH":"2022-10-18T16:39:36.915264","EPHEMERIS_TYPE":"0","INCLINATION":"53.2170","NORAD_CAT_ID":"51120","PERIOD":"95.437","OBJECT_TYPE":"PAYLOAD","CENTER_NAME":"EARTH","MEAN_MOTION_DOT":"0.00001753"},{"BSTAR":"0.00010756000000","MEAN_ELEMENT_THEORY":"SGP4","REV_AT_EPOCH":"4200","TLE_LINE1":"1 51121U 22005T   22291.84138700  .00001424  00000-0  10756-3 0  9999","TIME_SYSTEM":"UTC","GP_ID":"215528928","SITE":"AFETR","SEMIMAJOR_AXIS":"6917.912","EPOCH":"2022-10-18T20:11:35.836800","EPHEMERIS_TYPE":"0","OBJECT_NAME":"STARLINK-3399","INCLINATION":"53.2172","NORAD_CAT_ID":"51121","PERIOD":"95.438","OBJECT_TYPE":"PAYLOAD","MEAN_MOTION_DOT":"0.00001424","CENTER_NAME":"EARTH","APOAPSIS":"541.300","RCS_SIZE":"LARGE","REF_FRAME":"TEME","RA_OF_ASC_NODE":"86.0270","MEAN_MOTION_DDOT":"0.0000000000000","CLASSIFICATION_TYPE":"U","FILE":"3621750","MEAN_MOTION":"15.08829767","ELEMENT_SET_NO":"999","OBJECT_ID":"2022-005T","ARG_OF_PERICENTER":"44.7240","MEAN_ANOMALY":"315.3929","COUNTRY_CODE":"US","PERIAPSIS":"538.253","TLE_LINE2":"2 51121  53.2172  86.0270 0002202  44.7240 315.3929 15.08829767 42003","LAUNCH_DATE":"2022-01-19","DECAY_DATE":null,"ECCENTRICITY":"0.00022020"},{"ARG_OF_PERICENTER":"56.4731","OBJECT_ID":"2022-005U","FILE":"3621750","ELEMENT_SET_NO":"999","MEAN_MOTION":"15.08817142","CLASSIFICATION_TYPE":"U","MEAN_MOTION_DDOT":"0.0000000000000","RA_OF_ASC_NODE":"86.6969","REF_FRAME":"TEME","APOAPSIS":"540.864","RCS_SIZE":"LARGE","ECCENTRICITY":"0.00015160","DECAY_DATE":null,"LAUNCH_DATE":"2022-01-19","TLE_LINE2":"2 51122  53.2194  86.6969 0001516  56.4731 303.6406 15.08817142 41981","PERIAPSIS":"538.766","COUNTRY_CODE":"US","MEAN_ANOMALY":"303.6406","SEMIMAJOR_AXIS":"6917.950","SITE":"AFETR","GP_ID":"215529178","TIME_SYSTEM":"UTC","TLE_LINE1":"1 51122U 22005U   22291.69788460  .00000077  00000-0  22938-4 0  9996","REV_AT_EPOCH":"4198","MEAN_ELEMENT_THEORY":"SGP4","BSTAR":"0.00002293800000","CENTER_NAME":"EARTH","MEAN_MOTION_DOT":"0.00000077","PERIOD":"95.439","OBJECT_TYPE":"PAYLOAD","NORAD_CAT_ID":"51122","INCLINATION":"53.2194","OBJECT_NAME":"STARLINK-3373","EPHEMERIS_TYPE":"0","EPOCH":"2022-10-18T16:44:57.229440"},{"SEMIMAJOR_AXIS":"6917.885","SITE":"AFETR","TIME_SYSTEM":"UTC","GP_ID":"215530420","MEAN_ELEMENT_THEORY":"SGP4","REV_AT_EPOCH":"4200","TLE_LINE1":"1 51123U 22005V   22291.82298727 -.00000017  00000-0  17028-4 0  9993","BSTAR":"0.00001702800000","CENTER_NAME":"EARTH","MEAN_MOTION_DOT":"-0.00000017","PERIOD":"95.438","OBJECT_TYPE":"PAYLOAD","INCLINATION":"53.2189","NORAD_CAT_ID":"51123","OBJECT_NAME":"STARLINK-3392","EPOCH":"2022-10-18T19:45:06.100128","EPHEMERIS_TYPE":"0","ARG_OF_PERICENTER":"51.2718","CLASSIFICATION_TYPE":"U","ELEMENT_SET_NO":"999","FILE":"3621750","OBJECT_ID":"2022-005V","MEAN_MOTION":"15.08838425","MEAN_MOTION_DDOT":"0.0000000000000","RA_OF_ASC_NODE":"86.1356","REF_FRAME":"TEME","APOAPSIS":"541.129","RCS_SIZE":"LARGE","ECCENTRICITY":"0.00019930","DECAY_DATE":null,"LAUNCH_DATE":"2022-01-19","PERIAPSIS":"538.371","TLE_LINE2":"2 51123  53.2189  86.1356 0001993  51.2718 308.8452 15.08838425 42007","COUNTRY_CODE":"US","MEAN_ANOMALY":"308.8452"},{"NORAD_CAT_ID":"51124","INCLINATION":"53.2162","EPHEMERIS_TYPE":"0","EPOCH":"2022-10-18T20:47:21.190272","OBJECT_NAME":"STARLINK-3389","MEAN_MOTION_DOT":"0.00004868","CENTER_NAME":"EARTH","PERIOD":"95.437","OBJECT_TYPE":"PAYLOAD","TLE_LINE1":"1 51124U 22005W   22291.86621748  .00004868  00000-0  32366-3 0  9999","REV_AT_EPOCH":"4187","MEAN_ELEMENT_THEORY":"SGP4","GP_ID":"215530180","TIME_SYSTEM":"UTC","BSTAR":"0.00032366000000","SEMIMAJOR_AXIS":"6917.857","SITE":"AFETR","COUNTRY_CODE":"US","TLE_LINE2":"2 51124  53.2162  95.9331 0001858  50.2372 309.8784 15.08847522 41876","PERIAPSIS":"538.437","MEAN_ANOMALY":"309.8784","ECCENTRICITY":"0.00018580","LAUNCH_DATE":"2022-01-19","DECAY_DATE":null,"RA_OF_ASC_NODE":"95.9331","MEAN_MOTION_DDOT":"0.0000000000000","APOAPSIS":"541.008","RCS_SIZE":"LARGE","REF_FRAME":"TEME","ARG_OF_PERICENTER":"50.2372","ELEMENT_SET_NO":"999","FILE":"3621750","MEAN_MOTION":"15.08847522","OBJECT_ID":"2022-005W","CLASSIFICATION_TYPE":"U"}];
